IRIDIUM 26              
1 24903U 97043A   25218.87364477  .00000275  00000+0  85697-4 0  9997
2 24903  86.3922  89.3251 0001948  85.4617 274.6803 14.37176203464021
IRIDIUM 22              
1 24907U 97043E   25218.77573619  .00000288  00000+0  92424-4 0  9990
2 24907  86.3929  92.9514 0002077  88.7994 271.3441 14.35985304464033
DUMMY MASS 1            
1 24925U 97048A   25218.95494561  .00000352  00000+0  36162-4 0  9992
2 24925  86.3346 111.8613 0005690 347.7919  12.3167 14.87021272512670
DUMMY MASS 2            
1 24926U 97048B   25218.79094654  .00000320  00000+0  32743-4 0  9990
2 24926  86.3349 113.5543 0006963 358.3099   1.8101 14.86773002512424
IRIDIUM 29              
1 24944U 97051A   25218.85027559  .00000332  00000+0  10648-3 0  9993
2 24944  86.3974 122.6567 0002373  87.4625 272.6844 14.36502303460547
IRIDIUM 33              
1 24946U 97051C   25218.81802953  .00000256  00000+0  83075-4 0  9990
2 24946  86.3890 121.9347 0005698 276.2835  83.7712 14.34919113460003
IRIDIUM 28              
1 24948U 97051E   25218.79179860  .00000245  00000+0  75235-4 0  9990
2 24948  86.3975 120.1679 0001683  81.2608 278.8780 14.37415113461119
IRIDIUM 36              
1 24967U 97056C   25218.88642693  .00000292  00000+0  90857-4 0  9994
2 24967  86.4021 151.7192 0002070  91.0046 269.1389 14.37642492459509
